{
  "norad_id": 63948,
  "name": "STARLINK-33983",
  "history": [
    {
      "epoch": "2026-03-28T18:52:24.428640",
      "apogee_km": 574.2106518924356,
      "perigee_km": 569.8299677400573,
      "latitude_deg": -39.03635807793941,
      "longitude_deg": -69.7061904000584,
      "semi_major_axis_km": 6950.157309816246,
      "eccentricity": 0.00031515,
      "inclination_deg": 70.0006,
      "raan_deg": 226.2751,
      "arg_perigee_deg": 273.8754,
      "mean_anomaly_deg": 86.2045,
      "mean_motion_rev_day": 14.98341506
    }
  ]
}